NORAD_CAT_ID,OBJECT_NAME,OBJECT_TYPE,EPOCH,MEAN_MOTION,ECCENTRICITY,INCLINATION,RA_OF_ASC_NODE,ARG_OF_PERICENTER,MEAN_ANOMALY,BSTAR,MEAN_MOTION_DOT,MEAN_MOTION_DDOT,TLE_LINE0,TLE_LINE1,TLE_LINE2,SEMIMAJOR_AXIS,PERIOD,APOGEE,PERIGEE,DECAYED
55392.0,STARLINK-5085,PAYLOAD,2023-05-15 18:59:01,15.69918925,0.00034,69.9974,156.9843,264.4236,95.6572,6.8025e-06,6.05e-06,0.0,0 STARLINK-5085,1 55392U 23014B   23135.79099446  .00000605  00000-0  68025-5 0  9993,2 55392  69.9974 156.9843 0003400 264.4236  95.6572 15.69918925 16545,6737.266,91.724,361.422,356.84,0.0
55392.0,STARLINK-5085,PAYLOAD,2023-05-16 10:16:32,15.69930595,0.0003174,69.9976,155.1943,262.0136,98.07,2.3582e-06,7.1e-07,0.0,0 STARLINK-5085,1 55392U 23014B   23136.42815636  .00000071  00000-0  23582-5 0  9997,2 55392  69.9976 155.1943 0003174 262.0136  98.0700 15.69930595 16648,6737.233,91.724,361.236,356.959,0.0
55392.0,STARLINK-5085,PAYLOAD,2023-05-17 10:44:35,15.69916889,0.0002379,69.998,152.3267,253.5444,106.549,-4.9765e-06,-8.1e-06,0.0,0 STARLINK-5085,1 55392U 23014B   23137.44763418 -.00000810  00000-0 -49765-5 0  9994,2 55392  69.9980 152.3267 0002379 253.5444 106.5490 15.69916889 16803,6737.272,91.725,360.74,357.534,0.0
55392.0,STARLINK-5085,PAYLOAD,2023-05-18 02:02:06,15.69923976,0.0003272,69.9965,150.5338,259.2018,100.8809,4.3192e-06,3.07e-06,0.0,0 STARLINK-5085,1 55392U 23014B   23138.08479354  .00000307  00000-0  43192-5 0  9995,2 55392  69.9965 150.5338 0003272 259.2018 100.8809 15.69923976 16905,6737.252,91.724,361.321,356.912,0.0
55392.0,STARLINK-5085,PAYLOAD,2023-05-18 11:12:36,15.69928619,0.0003226,69.9967,149.4606,264.3305,95.7523,4.1866e-06,2.91e-06,0.0,0 STARLINK-5085,1 55392U 23014B   23138.46709105  .00000291  00000-0  41866-5 0  9995,2 55392  69.9967 149.4606 0003226 264.3305  95.7523 15.69928619 17902,6737.238,91.724,361.277,356.93,0.0
55392.0,STARLINK-5085,PAYLOAD,2023-05-19 02:30:08,15.69918616,0.0003197,69.9965,147.6674,256.9609,103.123,3.9382e-06,2.61e-06,0.0,0 STARLINK-5085,1 55392U 23014B   23139.10426387  .00000261  00000-0  39382-5 0  9992,2 55392  69.9965 147.6674 0003197 256.9609 103.1230 15.69918616 17068,6737.267,91.724,361.286,356.978,0.0
55392.0,STARLINK-5085,PAYLOAD,2023-05-19 17:47:39,15.69917324,0.0003105,69.9971,145.8759,264.5177,95.5664,1.005e-05,9.96e-06,0.0,0 STARLINK-5085,1 55392U 23014B   23139.74143215  .00000996  00000-0  10050-4 0  9993,2 55392  69.9971 145.8759 0003105 264.5177  95.5664 15.69917324 18109,6737.271,91.725,361.227,357.044,0.0
55392.0,STARLINK-5085,PAYLOAD,2023-05-20 02:58:10,15.69923087,0.0003158,69.9968,144.8007,261.5198,98.564,9.8255e-06,9.69e-06,0.0,0 STARLINK-5085,1 55392U 23014B   23140.12372815  .00000969  00000-0  98255-5 0  9991,2 55392  69.9968 144.8007 0003158 261.5198  98.5640 15.69923087 17220,6737.254,91.724,361.247,356.991,0.0
55392.0,STARLINK-5085,PAYLOAD,2023-05-20 10:36:55,15.69925078,0.0002931,69.9969,143.9048,260.2117,99.8748,2.3626e-05,2.629e-05,0.0,0 STARLINK-5085,1 55392U 23014B   23140.44230767  .00002629  00000-0  23626-4 0  9999,2 55392  69.9969 143.9048 0002931 260.2117  99.8748 15.69925078 18216,6737.248,91.724,361.088,357.139,0.0
55392.0,STARLINK-5085,PAYLOAD,2023-05-21 00:22:41,15.69952447,0.0003147,69.9974,142.2929,266.5144,93.5692,-3.1534e-05,-4.007e-05,0.0,0 STARLINK-5085,1 55392U 23014B   23141.01575412 -.00004007  00000-0 -31534-4 0  9993,2 55392  69.9974 142.2929 0003147 266.5144  93.5692 15.69952447 17365,6737.17,91.723,361.155,356.915,0.0
55392.0,STARLINK-5085,PAYLOAD,2023-05-21 09:33:15,15.69890731,0.0003065,69.9971,141.2182,261.2299,98.8549,-2.7549e-05,-3.519e-05,0.0,0 STARLINK-5085,1 55392U 23014B   23141.39809230 -.00003519  00000-0 -27549-4 0  9990,2 55392  69.9971 141.2182 0003065 261.2299  98.8549 15.69890731 17427,6737.347,91.726,361.277,357.147,0.0
55392.0,STARLINK-5085,PAYLOAD,2023-05-21 17:11:59,15.69913578,0.0003125,69.9969,140.3226,262.4701,97.614,-8.7974e-07,-3.18e-06,0.0,0 STARLINK-5085,1 55392U 23014B   23141.71665878 -.00000318  00000-0 -87974-6 0  9998,2 55392  69.9969 140.3226 0003125 262.4701  97.6140 15.69913578 17475,6737.281,91.725,361.252,357.041,0.0
55392.0,STARLINK-5085,PAYLOAD,2023-05-22 00:50:43,15.6993253,0.0003485,69.9981,139.4281,262.3502,97.7298,9.1205e-06,8.84e-06,0.0,0 STARLINK-5085,1 55392U 23014B   23142.03522783  .00000884  00000-0  91205-5 0  9998,2 55392  69.9981 139.4281 0003485 262.3502  97.7298 15.69932530 17526,6737.227,91.724,361.44,356.744,0.0
55392.0,STARLINK-5085,PAYLOAD,2023-05-22 02:22:28,15.69944359,0.0002824,69.9982,139.2487,264.1305,95.9569,2.1904e-05,2.424e-05,0.0,0 STARLINK-5085,1 55392U 23014B   23142.09893528  .00002424  00000-0  21904-4 0  9992,2 55392  69.9982 139.2487 0002824 264.1305  95.9569 15.69944359 17534,6737.193,91.723,360.961,357.156,0.0
55392.0,STARLINK-5085,PAYLOAD,2023-05-22 10:01:15,15.69908767,0.0002921,69.9976,138.3527,270.3058,89.7803,-2.1303e-05,-2.771e-05,0.0,0 STARLINK-5085,1 55392U 23014B   23142.41754340 -.00002771  00000-0 -21303-4 0  9996,2 55392  69.9976 138.3527 0002921 270.3058  89.7803 15.69908767 18529,6737.295,91.725,361.128,357.192,0.0
55392.0,STARLINK-5085,PAYLOAD,2023-05-23 08:57:32,15.69911181,0.0003265,69.9981,135.668,268.0556,92.0266,2.5087e-05,2.803e-05,0.0,0 STARLINK-5085,1 55392U 23014B   23143.37328788  .00002803  00000-0  25087-4 0  9992,2 55392  69.9981 135.6680 0003265 268.0556  92.0266 15.69911181 17730,6737.288,91.725,361.353,356.953,0.0
55392.0,STARLINK-5085,PAYLOAD,2023-05-23 22:43:17,15.69935126,0.0002876,69.999,134.0559,261.1163,98.9708,-1.24e-05,-1.704e-05,0.0,0 STARLINK-5085,1 55392U 23014B   23143.94673527 -.00001704  00000-0 -12400-4 0  9995,2 55392  69.9990 134.0559 0002876 261.1163  98.9708 15.69935126 18768,6737.22,91.724,361.022,357.147,0.0
55392.0,STARLINK-5085,PAYLOAD,2023-05-24 00:15:03,15.6993055,0.0003043,69.999,133.8764,261.0911,98.9941,-1.1551e-05,-1.602e-05,0.0,0 STARLINK-5085,1 55392U 23014B   23144.01045371 -.00001602  00000-0 -11551-4 0  9997,2 55392  69.9990 133.8764 0003043 261.0911  98.9941 15.69930550 17832,6737.233,91.724,361.148,357.048,0.0
55392.0,STARLINK-5085,PAYLOAD,2023-05-24 09:25:33,15.69937016,0.0002947,69.9988,132.8016,258.2552,101.8313,-1.639e-05,-2.184e-05,0.0,0 STARLINK-5085,1 55392U 23014B   23144.39274949 -.00002184  00000-0 -16390-4 0  9995,2 55392  69.9988 132.8016 0002947 258.2552 101.8313 15.69937016 18831,6737.214,91.723,361.065,357.094,0.0
55392.0,STARLINK-5085,PAYLOAD,2023-05-25 22:07:37,15.69917452,0.0003076,69.9974,128.501,265.8408,94.2436,6.8079e-07,-1.31e-06,0.0,0 STARLINK-5085,1 55392U 23014B   23145.92195980 -.00000131  00000-0  68079-6 0  9994,2 55392  69.9974 128.5010 0003076 265.8408  94.2436 15.69917452 19070,6737.27,91.725,361.208,357.063,0.0
55392.0,STARLINK-5085,PAYLOAD,2023-05-26 01:11:07,15.69917083,0.0003296,69.9975,128.1432,264.9936,95.0883,6.6781e-06,5.9e-06,0.0,0 STARLINK-5085,1 55392U 23014B   23146.04939216  .00000590  00000-0  66781-5 0  9991,2 55392  69.9975 128.1432 0003296 264.9936  95.0883 15.69917083 18158,6737.271,91.725,361.357,356.916,0.0
55392.0,STARLINK-5085,PAYLOAD,2023-05-26 08:49:52,15.69922389,0.0003349,69.9973,127.2474,262.9687,97.1128,1.3958e-05,1.466e-05,0.0,0 STARLINK-5085,1 55392U 23014B   23146.36797147  .00001466  00000-0  13958-4 0  9991,2 55392  69.9973 127.2474 0003349 262.9687  97.1128 15.69922389 19142,6737.256,91.724,361.377,356.865,0.0
55392.0,STARLINK-5085,PAYLOAD,2023-05-27 15:24:55,15.69921294,0.0003417,69.9969,123.6646,267.512,92.5684,1.0199e-05,1.014e-05,0.0,0 STARLINK-5085,1 55392U 23014B   23147.64230614  .00001014  00000-0  10199-4 0  9997,2 55392  69.9969 123.6646 0003417 267.5120  92.5684 15.69921294 18405,6737.259,91.724,361.426,356.822,0.0
55392.0,STARLINK-5085,PAYLOAD,2023-05-28 05:10:40,15.69929007,0.0003429,69.9977,122.0527,266.2019,93.8784,1.3852e-05,1.453e-05,0.0,0 STARLINK-5085,1 55392U 23014B   23148.21575217  .00001453  00000-0  13852-4 0  9998,2 55392  69.9977 122.0527 0003429 266.2019  93.8784 15.69929007 19430,6737.237,91.724,361.412,356.792,0.0
55392.0,STARLINK-5085,PAYLOAD,2023-05-28 15:52:57,15.69922221,0.0003347,69.9968,120.7982,263.3863,96.6952,1.4171e-05,1.491e-05,0.0,0 STARLINK-5085,1 55392U 23014B   23148.66177248  .00001491  00000-0  14171-4 0  9996,2 55392  69.9968 120.7982 0003347 263.3863  96.6952 15.69922221 18566,6737.257,91.724,361.376,356.867,0.0
55392.0,STARLINK-5085,PAYLOAD,2023-05-29 07:10:28,15.69920537,0.0003296,69.9975,119.0068,265.3751,94.7068,-9.3128e-06,-1.332e-05,0.0,0 STARLINK-5085,1 55392U 23014B   23149.29894562 -.00001332  00000-0 -93128-5 0  9997,2 55392  69.9975 119.0068 0003296 265.3751  94.7068 15.69920537 18667,6737.261,91.724,361.347,356.906,0.0
55392.0,STARLINK-5085,PAYLOAD,2023-05-29 20:56:14,15.69925582,0.0003025,69.9994,117.3956,254.3044,105.7818,6.7516e-06,5.99e-06,0.0,0 STARLINK-5085,1 55392U 23014B   23149.87239066  .00000599  00000-0  67516-5 0  9997,2 55392  69.9994 117.3956 0003025 254.3044 105.7818 15.69925582 19693,6737.247,91.724,361.15,357.074,0.0
55392.0,STARLINK-5085,PAYLOAD,2023-05-30 01:31:29,15.69925863,0.0003317,69.9984,116.858,259.8535,100.2287,8.1014e-06,7.62e-06,0.0,0 STARLINK-5085,1 55392U 23014B   23150.06354028  .00000762  00000-0  81014-5 0  9997,2 55392  69.9984 116.8580 0003317 259.8535 100.2287 15.69925863 18789,6737.246,91.724,361.346,356.876,0.0
55392.0,STARLINK-5085,PAYLOAD,2023-05-30 07:38:30,15.69923372,0.000335,69.9973,116.14,263.7449,96.3365,2.3797e-06,7.3e-07,0.0,0 STARLINK-5085,1 55392U 23014B   23150.31840921  .00000073  00000-0  23797-5 0  9996,2 55392  69.9973 116.1400 0003350 263.7449  96.3365 15.69923372 19760,6737.253,91.724,361.375,356.861,0.0
55392.0,STARLINK-5085,PAYLOAD,2023-05-31 00:27:47,15.69921146,0.0003378,69.9971,114.1693,263.0805,97.0006,4.645e-06,3.46e-06,0.0,0 STARLINK-5085,1 55392U 23014B   23151.01929401  .00000346  00000-0  46450-5 0  9999,2 55392  69.9971 114.1693 0003378 263.0805  97.0006 15.69921146 18934,6737.26,91.724,361.4,356.849,0.0
